0 NSTAR C
1 27461U 02035B   13280.91574304 -.00000315  00000-0  10000-3 0  7674
2 27461 001.9898 074.0750 0002658 123.6395 284.7211 01.00271766 41279
0 NSTAR C
1 27461U 02035B   13281.91915740 -.00000318  00000-0  10000-3 0  7682
2 27461 001.9920 074.0625 0002665 122.7168 287.8714 01.00271252 41285
0 NSTAR C
1 27461U 02035B   13282.77723956  .00000000  00000-0  10000-3 0  7703
2 27461 001.9923 073.9837 0002945 124.0440 236.3561 01.00265663 41299
0 NSTAR C
1 27461U 02035B   13282.94092076 -.00000321  00000-0  10000-3 0  7699
2 27461 001.9943 074.0504 0002679 121.8459 297.5908 01.00270718 41294
0 NSTAR C
1 27461U 02035B   13283.95349972 -.00000324  00000-0  10000-3 0  7706
2 27461 001.9965 074.0380 0002703 122.1424 302.8263 01.00270222 41300
0 NSTAR C
1 27461U 02035B   13285.77809332 -.00000329  00000-0  10000-3 0  7715
2 27461 002.0004 074.0197 0002746 119.5251 244.0981 01.00269356 41329
0 NSTAR C
1 27461U 02035B   13286.79114667 -.00000330  00000-0  10000-3 0  7721
2 27461 002.0026 074.0082 0002753 119.1381 250.1831 01.00268892 41331
0 NSTAR C
1 27461U 02035B   13289.41651616 -.00000328  00000-0  10000-3 0  7731
2 27461 002.0094 074.0007 0003217 134.4601 102.6065 01.00273935 41350
0 NSTAR C
1 27461U 02035B   13289.75827918  .00000000  00000-0  10000-3 0  7756
2 27461 002.0086 073.9703 0002643 129.7140 230.7126 01.00264489 41365
0 NSTAR C
1 27461U 02035B   13289.75832134  .00000000  00000-0  10000-3 0  7741
2 27461 002.0085 073.9706 0002779 121.2837 239.1472 01.00264039 41365
0 NSTAR C
1 27461U 02035B   13290.67765581 -.00000326  00000-0  10000-3 0  7747
2 27461 002.0124 073.9956 0003210 134.9277 197.4045 01.00273369 41364
0 NSTAR C
1 27461U 02035B   13291.86707162 -.00000324  00000-0  10000-3 0  7759
2 27461 002.0149 073.9843 0003212 135.8262 265.8847 01.00272919 41384
0 NSTAR C
1 27461U 02035B   13292.94570208 -.00000322  00000-0  10000-3 0  7767
2 27461 002.0172 073.9734 0003256 137.6514 293.4442 01.00272573 41392
0 NSTAR C
1 27461U 02035B   13294.72619566 -.00000319  00000-0  10000-3 0  7773
2 27461 002.0211 073.9557 0003314 139.3067 214.5432 01.00271975 41406
